{
    "satellites": [
        {
            "name": "starlink349",
            "title": "Starlink-349 (G17-32) (new)",
            "tle": [
                "1 67672C 26022AA  26039.76020833 -.01378900  00000+0 -26309-2 0   395",
                "2 67672  97.2807  72.1968 0001700  82.0874  53.2884 16.02057533    16"
            ],
            "stdMag": 5,
            "noradId": "67672",
            "tleUrl": "http://celestrak.org/NORAD/elements/supplemental/sup-gp.php?FILE=starlink&FORMAT=tle",
            "launchDate": "2026-02-02T15:47:11.000Z",
            "active": true,
            "batch": [
                {
                    "noradId": "67672",
                    "tle": [
                        "1 67672C 26022AA  26039.76020833 -.01378900  00000+0 -26309-2 0   395",
                        "2 67672  97.2807  72.1968 0001700  82.0874  53.2884 16.02057533    16"
                    ]
                },
                {
                    "noradId": "67671",
                    "tle": [
                        "1 67671C 26022Z   26039.77756944 -.01371500  00000+0 -26039-2 0   393",
                        "2 67671  97.2805  72.2164 0001525  95.8811 141.2440 16.02136593    10"
                    ]
                },
                {
                    "noradId": "67670",
                    "tle": [
                        "1 67670C 26022Y   26039.75951389 -.01385000  00000+0 -26657-2 0   396",
                        "2 67670  97.2807  72.1952 0001653  86.9815  42.5026 16.01911089    15"
                    ]
                },
                {
                    "noradId": "67669",
                    "tle": [
                        "1 67669C 26022X   26039.75534722 -.01391600  00000+0 -27036-2 0   397",
                        "2 67669  97.2811  72.1901 0001638  79.7187  23.6654 16.01752970    16"
                    ]
                },
                {
                    "noradId": "67668",
                    "tle": [
                        "1 67668C 26022W   26039.75534722 -.01400000  00000+0 -27538-2 0   398",
                        "2 67668  97.2809  72.1888 0001624  80.8713  20.0488 16.01544491    12"
                    ]
                },
                {
                    "noradId": "67667",
                    "tle": [
                        "1 67667C 26022V   26039.75881944 -.01407600  00000+0 -28062-2 0   394",
                        "2 67667  97.2811  72.1914 0001675  90.0529  28.2960 16.01314645    19"
                    ]
                },
                {
                    "noradId": "67665",
                    "tle": [
                        "1 67665C 26022T   26039.78173611 -.01421200  00000+0 -29098-2 0   392",
                        "2 67665  97.2811  72.2144 0001588  91.8263 153.8076 16.00856478    17"
                    ]
                },
                {
                    "noradId": "67666",
                    "tle": [
                        "1 67666C 26022U   26039.78312500 -.01414800  00000+0 -28652-2 0   398",
                        "2 67666  97.2812  72.2171 0001546  91.0462 164.9017 16.01043629    11"
                    ]
                },
                {
                    "noradId": "67664",
                    "tle": [
                        "1 67664C 26022S   26039.78173611 -.01426400  00000+0 -29404-2 0   399",
                        "2 67664  97.2811  72.2133 0001601  93.3678 150.6565 16.00739524    17"
                    ]
                },
                {
                    "noradId": "67663",
                    "tle": [
                        "1 67663C 26022R   26039.75256944 -.01441000  00000+0 -30143-2 0   391",
                        "2 67663  97.2817  72.1802 0001637  76.0972 355.7976 16.00494160    16"
                    ]
                },
                {
                    "noradId": "67662",
                    "tle": [
                        "1 67662C 26022Q   26039.75256944 -.01434200  00000+0 -29714-2 0   396",
                        "2 67662  97.2817  72.1812 0001612  80.4321 353.5311 16.00657991    18"
                    ]
                },
                {
                    "noradId": "67661",
                    "tle": [
                        "1 67661C 26022P   26039.76020833 -.01446000  00000+0 -30583-2 0   399",
                        "2 67661  97.2819  72.1878 0001674  86.1457  27.6207 16.00301913    15"
                    ]
                },
                {
                    "noradId": "67660",
                    "tle": [
                        "1 67660C 26022N   26039.75812500 -.01452900  00000+0 -30943-2 0   393",
                        "2 67660  97.2818  72.1847 0001665  81.8306  18.2415 16.00183616    19"
                    ]
                },
                {
                    "noradId": "67659",
                    "tle": [
                        "1 67659C 26022M   26039.75812500 -.01460300  00000+0 -31422-2 0   397",
                        "2 67659  97.2822  72.1842 0001673  81.5796  16.2848 16.00007500    11"
                    ]
                },
                {
                    "noradId": "67658",
                    "tle": [
                        "1 67658C 26022L   26039.75604167 -.01463900  00000+0 -31719-2 0   392",
                        "2 67658  97.2821  72.1811 0001683  80.9652   3.2187 15.99886035    17"
                    ]
                },
                {
                    "noradId": "67657",
                    "tle": [
                        "1 67657C 26022K   26039.75604167 -.01470300  00000+0 -32187-2 0   393",
                        "2 67657  97.2821  72.1796 0001650  78.9770   2.9794 15.99706175    16"
                    ]
                },
                {
                    "noradId": "67656",
                    "tle": [
                        "1 67656C 26022J   26039.75534722 -.01475000  00000+0 -32586-2 0   396",
                        "2 67656  97.2823  72.1782 0001641  79.0559 356.8577 15.99546009    17"
                    ]
                },
                {
                    "noradId": "67655",
                    "tle": [
                        "1 67655C 26022H   26039.75326389 -.01479700  00000+0 -32940-2 0   398",
                        "2 67655  97.2827  72.1755 0001510  84.8956 337.2153 15.99413767    17"
                    ]
                },
                {
                    "noradId": "67654",
                    "tle": [
                        "1 67654C 26022G   26039.75187500 -.01486600  00000+0 -33459-2 0   390",
                        "2 67654  97.2826  72.1728 0001569  74.2843 337.4479 15.99221611    15"
                    ]
                },
                {
                    "noradId": "67653",
                    "tle": [
                        "1 67653C 26022F   26039.75187500 -.01493800  00000+0 -33939-2 0   392",
                        "2 67653  97.2829  72.1722 0001498  85.0806 324.5609 15.99057519    17"
                    ]
                },
                {
                    "noradId": "67652",
                    "tle": [
                        "1 67652C 26022E   26039.75534722 -.01499400  00000+0 -34461-2 0   396",
                        "2 67652  97.2829  72.1748 0001634  83.4701 343.7795 15.98853163    19"
                    ]
                },
                {
                    "noradId": "67651",
                    "tle": [
                        "1 67651C 26022D   26039.75465278 -.01503600  00000+0 -34843-2 0   396",
                        "2 67651  97.2829  72.1732 0001574  80.0734 341.2846 15.98707323    19"
                    ]
                },
                {
                    "noradId": "67650",
                    "tle": [
                        "1 67650C 26022C   26039.75534722 -.01511900  00000+0 -35384-2 0   399",
                        "2 67650  97.2831  72.1731 0001617  78.7749 344.3936 15.98534572    16"
                    ]
                },
                {
                    "noradId": "67649",
                    "tle": [
                        "1 67649C 26022B   26039.78243056 -.01516100  00000+0 -35977-2 0   392",
                        "2 67649  97.2832  72.2015 0001672  97.1629 119.6451 15.98284354    19"
                    ]
                },
                {
                    "noradId": "67648",
                    "tle": [
                        "1 67648C 26022A   26039.75395833 -.01521000  00000+0 -36180-2 0   391",
                        "2 67648  97.2835  72.1701 0001609  76.1428 335.2512 15.98245423    14"
                    ]
                }
            ]
        }
    ],
    "config": {}
}